[
    {
        "Altitude(m)": 604234.5887924623,
        "Argument of Periapsis(deg)": 0.0,
        "Eccentricity": 0.0,
        "Inclination(deg)": 60.0,
        "Latitude(deg)": 14.11711921656899,
        "Longitude(deg)": -78.27267289393069,
        "Mean Anomaly(deg)": -196.36359999999996,
        "RAAN(deg)": 210.0,
        "Satellite Name": "Test1 934",
        "Satellite Number": 934,
        "Semi-Major Axis(m)": 6980739.136638005,
        "Time(s)": 0
    },
    {
        "Altitude(m)": 604223.4180768193,
        "Argument of Periapsis(deg)": 0.00010418945913296404,
        "Eccentricity": 0.0,
        "Inclination(deg)": 60.0,
        "Latitude(deg)": 13.582255585071094,
        "Longitude(deg)": -77.98576384828299,
        "Mean Anomaly(deg)": -195.7434938545382,
        "RAAN(deg)": 209.99957995086027,
        "Satellite Name": "Test1 934",
        "Satellite Number": 934,
        "Semi-Major Axis(m)": 6980739.136638005,
        "Time(s)": 10
    }
]